NORAD_CAT_ID,OBJECT_NAME,OBJECT_TYPE,EPOCH,MEAN_MOTION,ECCENTRICITY,INCLINATION,RA_OF_ASC_NODE,ARG_OF_PERICENTER,MEAN_ANOMALY,BSTAR,MEAN_MOTION_DOT,MEAN_MOTION_DDOT,TLE_LINE0,TLE_LINE1,TLE_LINE2,SEMIMAJOR_AXIS,PERIOD,APOGEE,PERIGEE,DECAYED
55634.0,STARLINK-5500,PAYLOAD,2024-03-05 13:38:18,14.98340446,0.0003112,69.9973,255.4443,273.4349,86.6454,0.00014118,1.592e-05,0.0,0 STARLINK-5500,1 55634U 23021G   24065.56827543  .00001592  00000-0  14118-3 0  9993,2 55634  69.9973 255.4443 0003112 273.4349  86.6454 14.98340446 58339,6950.161,96.106,574.188,569.863,0.0
55634.0,STARLINK-5500,PAYLOAD,2024-03-05 21:39:00,14.98325993,0.0002997,69.9979,254.6035,270.3949,89.6866,-1.7514e-05,-3.02e-06,0.0,0 STARLINK-5500,1 55634U 23021G   24065.90208768 -.00000302  00000-0 -17514-4 0  9997,2 55634  69.9979 254.6035 0002997 270.3949  89.6866 14.98325993 58087,6950.205,96.107,574.153,569.987,0.0
55634.0,STARLINK-5500,PAYLOAD,2024-03-06 13:40:21,14.98323778,0.0003165,69.998,252.9202,271.5336,88.5461,-0.00014199,-1.787e-05,0.0,0 STARLINK-5500,1 55634U 23021G   24066.56969281 -.00001787  00000-0 -14199-3 0  9997,2 55634  69.9980 252.9202 0003165 271.5336  88.5461 14.98323778 58489,6950.212,96.107,574.277,569.877,0.0
55634.0,STARLINK-5500,PAYLOAD,2024-03-06 21:41:01,14.98323575,0.0003033,69.9983,252.0784,270.3143,89.7668,-0.00013193,-1.667e-05,0.0,0 STARLINK-5500,1 55634U 23021G   24066.90349377 -.00001667  00000-0 -13193-3 0  9993,2 55634  69.9983 252.0784 0003033 270.3143  89.7668 14.98323575 58235,6950.213,96.107,574.186,569.97,0.0
55634.0,STARLINK-5500,PAYLOAD,2024-03-07 13:42:22,14.98318136,0.0003022,69.9982,250.395,268.5893,91.4919,5.7783e-05,5.96e-06,0.0,0 STARLINK-5500,1 55634U 23021G   24067.57109233  .00000596  00000-0  57783-4 0  9994,2 55634  69.9982 250.3950 0003022 268.5893  91.4919 14.98318136 58639,6950.23,96.108,574.195,569.994,0.0
55634.0,STARLINK-5500,PAYLOAD,2024-03-08 12:08:15,14.98321636,0.0003102,69.9984,248.0383,269.2865,90.7938,0.00014158,1.596e-05,0.0,0 STARLINK-5500,1 55634U 23021G   24068.50573482  .00001596  00000-0  14158-3 0  9998,2 55634  69.9984 248.0383 0003102 269.2865  90.7938 14.98321636 58475,6950.219,96.108,574.24,569.928,0.0
55634.0,STARLINK-5500,PAYLOAD,2024-03-08 18:32:47,14.98324046,0.0003125,69.9985,247.3651,269.3927,90.6873,0.00013389,1.505e-05,0.0,0 STARLINK-5500,1 55634U 23021G   24068.77277502  .00001505  00000-0  13389-3 0  9996,2 55634  69.9985 247.3651 0003125 269.3927  90.6873 14.98324046 58814,6950.211,96.107,574.248,569.904,0.0
55634.0,STARLINK-5500,PAYLOAD,2024-03-09 12:10:16,14.98331553,0.0003119,69.9987,245.5135,269.4947,90.5855,0.00015585,1.767e-05,0.0,0 STARLINK-5500,1 55634U 23021G   24069.50713176  .00001767  00000-0  15585-3 0  9990,2 55634  69.9987 245.5135 0003119 269.4947  90.5855 14.98331553 58628,6950.188,96.107,574.221,569.885,0.0
55634.0,STARLINK-5500,PAYLOAD,2024-03-09 18:34:48,14.98333971,0.0003139,69.9988,244.8401,269.5026,90.5774,0.00015245,1.727e-05,0.0,0 STARLINK-5500,1 55634U 23021G   24069.77416973  .00001727  00000-0  15245-3 0  9993,2 55634  69.9988 244.8401 0003139 269.5026  90.5774 14.98333971 58961,6950.181,96.107,574.227,569.864,0.0
55634.0,STARLINK-5500,PAYLOAD,2024-03-10 12:12:17,14.98332281,0.0003265,69.9964,242.9863,271.3526,88.7259,3.9215e-05,3.75e-06,0.0,0 STARLINK-5500,1 55634U 23021G   24070.50853328  .00000375  00000-0  39215-4 0  9997,2 55634  69.9964 242.9863 0003265 271.3526  88.7259 14.98332281 58771,6950.186,96.107,574.32,569.782,0.0
55634.0,STARLINK-5500,PAYLOAD,2024-03-10 20:12:58,14.98298196,0.0002644,70.0,242.1472,266.0778,94.0079,0.00060286,7.102e-05,0.0,0 STARLINK-5500,1 55634U 23021G   24070.84234246  .00007102  00000-0  60286-3 0  9992,2 55634  70.0000 242.1472 0002644 266.0778  94.0079 14.98298196 58825,6950.291,96.109,573.994,570.319,0.0
55634.0,STARLINK-5500,PAYLOAD,2024-03-10 21:49:06,14.98293521,0.0002587,70.0001,241.9789,265.6975,94.3888,0.00069537,8.206e-05,0.0,0 STARLINK-5500,1 55634U 23021G   24070.90910457  .00008206  00000-0  69537-3 0  9998,2 55634  70.0001 241.9789 0002587 265.6975  94.3888 14.98293521 59137,6950.306,96.109,573.969,570.373,0.0
55634.0,STARLINK-5500,PAYLOAD,2024-03-11 04:13:37,14.98329937,0.0003698,70.0,241.3056,271.4659,88.6076,6.183e-05,6.45e-06,0.0,0 STARLINK-5500,1 55634U 23021G   24071.17613285  .00000645  00000-0  61830-4 0  9995,2 55634  70.0000 241.3056 0003698 271.4659  88.6076 14.98329937 58871,6950.193,96.107,574.628,569.488,0.0
55634.0,STARLINK-5500,PAYLOAD,2024-03-11 12:14:18,14.98334269,0.000311,70.0,240.464,269.9551,90.1252,-1.0074e-05,-2.13e-06,0.0,0 STARLINK-5500,1 55634U 23021G   24071.50993142 -.00000213  00000-0 -10074-4 0  9992,2 55634  70.0000 240.4640 0003110 269.9551  90.1252 14.98334269 59220,6950.18,96.107,574.206,569.883,0.0
55634.0,STARLINK-5500,PAYLOAD,2024-03-12 12:16:18,14.98330409,0.0002991,70.0001,237.9389,270.2223,89.8593,4.442e-05,4.37e-06,0.0,0 STARLINK-5500,1 55634U 23021G   24072.51133036  .00000437  00000-0  44420-4 0  9990,2 55634  70.0001 237.9389 0002991 270.2223  89.8593 14.98330409 59077,6950.192,96.107,574.135,569.978,0.0
55634.0,STARLINK-5500,PAYLOAD,2024-03-12 17:04:43,14.98331348,0.000298,70.0001,237.4339,269.4948,90.5869,5.3137e-05,5.41e-06,0.0,0 STARLINK-5500,1 55634U 23021G   24072.71160941  .00000541  00000-0  53137-4 0  9998,2 55634  70.0001 237.4339 0002980 269.4948  90.5869 14.98331348 59404,6950.189,96.107,574.125,569.983,0.0
55634.0,STARLINK-5500,PAYLOAD,2024-03-13 12:18:19,14.9833134,0.0002994,70.0003,235.4137,268.2428,91.8389,2.476e-05,2.02e-06,0.0,0 STARLINK-5500,1 55634U 23021G   24073.51272980  .00000202  00000-0  24760-4 0  9998,2 55634  70.0003 235.4137 0002994 268.2428  91.8389 14.98331340 59228,6950.189,96.107,574.135,569.973,0.0
55634.0,STARLINK-5500,PAYLOAD,2024-03-13 20:19:00,14.98332631,0.0003005,69.999,234.5711,266.9586,93.123,3.3307e-05,3.04e-06,0.0,0 STARLINK-5500,1 55634U 23021G   24073.84652821  .00000304  00000-0  33307-4 0  9990,2 55634  69.9990 234.5711 0003005 266.9586  93.1230 14.98332631 59574,6950.185,96.107,574.138,569.961,0.0
55634.0,STARLINK-5500,PAYLOAD,2024-03-14 12:20:20,14.98332439,0.0003018,69.9989,232.8879,267.1562,92.9252,4.2267e-05,4.11e-06,0.0,0 STARLINK-5500,1 55634U 23021G   24074.51412703  .00000411  00000-0  42267-4 0  9992,2 55634  69.9989 232.8879 0003018 267.1562  92.9252 14.98332439 59374,6950.185,96.107,574.148,569.953,0.0
55634.0,STARLINK-5500,PAYLOAD,2024-03-14 20:21:00,14.98334197,0.0003029,70.0001,232.047,267.6921,92.3891,5.8216e-05,6.02e-06,0.0,0 STARLINK-5500,1 55634U 23021G   24074.84792507  .00000602  00000-0  58216-4 0  9994,2 55634  70.0001 232.0470 0003029 267.6921  92.3891 14.98334197 59722,6950.18,96.107,574.15,569.94,0.0
55634.0,STARLINK-5500,PAYLOAD,2024-03-15 12:22:21,14.98329938,0.0003009,69.9998,230.3638,268.0498,92.0317,2.1584e-05,1.65e-06,0.0,0 STARLINK-5500,1 55634U 23021G   24075.51552828  .00000165  00000-0  21584-4 0  9991,2 55634  69.9998 230.3638 0003009 268.0498  92.0317 14.98329938 59528,6950.193,96.107,574.149,569.967,0.0
55634.0,STARLINK-5500,PAYLOAD,2024-03-16 12:24:22,14.98328789,0.0002864,70.0005,227.8399,268.5477,91.5354,2.8038e-06,-6e-07,0.0,0 STARLINK-5500,1 55634U 23021G   24076.51692972 -.00000060  00000-0  28038-5 0  9994,2 55634  70.0005 227.8399 0002864 268.5477  91.5354 14.98328789 59679,6950.197,96.107,574.052,570.071,0.0
55634.0,STARLINK-5500,PAYLOAD,2024-03-16 14:00:30,14.98328871,0.0002867,70.0005,227.6716,268.7205,91.3626,3.5703e-06,-5e-07,0.0,0 STARLINK-5500,1 55634U 23021G   24076.58368971 -.00000050  00000-0  35703-5 0  9996,2 55634  70.0005 227.6716 0002867 268.7205  91.3626 14.98328871 59980,6950.196,96.107,574.054,570.069,0.0
55634.0,STARLINK-5500,PAYLOAD,2024-03-16 20:25:02,14.98329784,0.0002883,70.0005,226.9977,269.3665,90.7164,1.4706e-05,8.2e-07,0.0,0 STARLINK-5500,1 55634U 23021G   24076.85072911  .00000082  00000-0  14706-4 0  9995,2 55634  70.0005 226.9977 0002883 269.3665  90.7164 14.98329784 60027,6950.194,96.107,574.062,570.055,0.0
55634.0,STARLINK-5500,PAYLOAD,2024-03-17 12:26:23,14.98328367,0.0002998,70.0003,225.3147,266.7301,93.3515,4.3965e-05,4.32e-06,0.0,0 STARLINK-5500,1 55634U 23021G   24077.51832873  .00000432  00000-0  43965-4 0  9998,2 55634  70.0003 225.3147 0002998 266.7301  93.3515 14.98328367 59823,6950.198,96.107,574.147,569.979,0.0
55634.0,STARLINK-5500,PAYLOAD,2024-03-17 14:02:31,14.98328337,0.0003003,70.0003,225.1464,266.6217,93.4598,4.3007e-05,4.2e-06,0.0,0 STARLINK-5500,1 55634U 23021G   24077.58508885  .00000420  00000-0  43007-4 0  9992,2 55634  70.0003 225.1464 0003003 266.6217  93.4598 14.98328337 60131,6950.198,96.107,574.15,569.976,0.0
55634.0,STARLINK-5500,PAYLOAD,2024-03-17 18:50:55,14.98330469,0.0002933,70.0006,224.6417,267.6206,92.4617,6.3426e-05,6.64e-06,0.0,0 STARLINK-5500,1 55634U 23021G   24077.78536722  .00000664  00000-0  63426-4 0  9992,2 55634  70.0006 224.6417 0002933 267.6206  92.4617 14.98330469 60169,6950.191,96.107,574.095,570.018,0.0
55634.0,STARLINK-5500,PAYLOAD,2024-03-18 12:28:24,14.98329833,0.0002917,70.0008,222.7903,263.7363,96.3464,5.415e-05,5.53e-06,0.0,0 STARLINK-5500,1 55634U 23021G   24078.51972762  .00000553  00000-0  54150-4 0  9993,2 55634  70.0008 222.7903 0002917 263.7363  96.3464 14.98329833 59976,6950.193,96.107,574.086,570.031,0.0
55634.0,STARLINK-5500,PAYLOAD,2024-03-18 20:29:04,14.98331323,0.0002897,70.0009,221.9487,263.2239,96.859,6.6509e-05,7.01e-06,0.0,0 STARLINK-5500,1 55634U 23021G   24078.85352626  .00000701  00000-0  66509-4 0  9997,2 55634  70.0009 221.9487 0002897 263.2239  96.8590 14.98331323 60322,6950.189,96.107,574.067,570.04,0.0
55634.0,STARLINK-5500,PAYLOAD,2024-03-19 12:30:25,14.98334422,0.0002807,70.0015,220.2669,257.8182,102.2662,7.4814e-05,8e-06,0.0,0 STARLINK-5500,1 55634U 23021G   24079.52112361  .00000800  00000-0  74814-4 0  9990,2 55634  70.0015 220.2669 0002807 257.8182 102.2662 14.98334422 60426,6950.179,96.107,573.995,570.093,0.0
